{"type":"FeatureCollection","features":[{"type":"Feature","properties":{},"geometry":{"coordinates":[[[2.268297109739109,41.45771735931726],[2.2485102635153282,41.47176449983206],[2.1829012470901716,41.45498561749875],[2.0839670159714387,41.39524880907044],[2.052203920717659,41.371416850779525],[2.0089852829128745,41.33623899651133],[1.9616009932716736,41.28734933140453],[1.9584767543947237,41.266609045622346],[2.0313756615344687,41.26034653223141],[2.1329134250511004,41.28930562194083],[2.2063330386699533,41.358911347259834],[2.268297109739109,41.45771735931726]]],"type":"Polygon"}}]}